LEMUR-2-FINNIAN         
1 66782U 25276DX  26181.15133008  .00002931  00000+0  23721-3 0  9992
2 66782  97.5328 251.7348 0008595  51.2340 308.9651 15.00481518 21948
LEMUR-2-STARLIGHT       
1 66783U 25276DY  26181.18591247  .00006108  00000+0  50512-3 0  9997
2 66783  97.5237 251.3802 0014635  90.7411 269.5489 14.99188228 32142
LEMUR-2-TARTIFLETTE     
1 66784U 25276DZ  26181.18424075  .00005128  00000+0  42494-3 0  9993
2 66784  97.5241 251.3864 0013639  98.1987 262.0784 14.99191276 32142
LEMUR-2-VUKASIN         
1 66785U 25276EA  26181.16676572  .00001355  00000+0  11226-3 0  9990
2 66785  97.5280 251.6977 0005185  94.3180 265.8637 15.00435599 32098
LEMUR-2-HOTSPUR-TOM     
1 66786U 25276EB  26181.44468523  .00005542  00000+0  45990-3 0  9994
2 66786  97.5235 251.6164 0014396  89.0798 271.2075 14.99095186 32118
LEMUR-2-MYRA            
1 66787U 25276EC  26180.93218802  .00007586  00000+0  60563-3 0  9994
2 66787  97.5219 251.3956 0018003 100.7876 259.5376 15.00418716 32129
LEMUR-2 FIKRETDENGIZ    
1 67363U 26004A   26180.97508350  .00003986  00000+0  43531-3 0  9995
2 67363  97.8011 179.3366 0010545  97.2500 262.9916 14.88416863 25186
TWILIGHT-1 OBJECT B     
1 67364U 26004B   26180.93781300  .00002037  00000+0  22910-3 0  9994
2 67364  97.8064 179.3095 0010271  88.5643 271.6750 14.87746800 25180
LEMUR-2-MARIO-SOUSA     
1 67365U 26004C   26180.95704319  .00005124  00000+0  55508-3 0  9991
2 67365  97.7986 179.3148 0010244  98.5300 261.7078 14.88616676 25195
LEMUR-2-SONNENBLUME     
1 67367U 26004E   26181.49509947  .00002847  00000+0  31287-3 0  9990
2 67367  97.7983 179.8240 0009738  98.4159 261.8163 14.88385156 25270
LEMUR-2-WOBLER          
1 67368U 26004F   26180.94895952  .00004607  00000+0  49984-3 0  9993
2 67368  97.8036 179.4215 0010056  91.3444 268.8925 14.88603443 25199
LEMUR-2-GRAM-E-SUE      
1 67370U 26004H   26181.47789442  .00002737  00000+0  30008-3 0  9990
2 67370  97.7970 179.8228 0008848 100.3347 259.8868 14.88528878 25278
LEMUR-2-KATIE           
1 67387U 26004AA  26180.98095997  .00003397  00000+0  35685-3 0  9997
2 67387  97.8031 179.8346 0004534  65.7582 294.4109 14.90125871 25215
LEMUR-2-HCS-BAZUS       
1 67388U 26004AB  26181.24824032  .00004578  00000+0  47801-3 0  9993
2 67388  97.8019 180.0784 0003934  64.4548 295.7076 14.90192916 25258
